[{"OBJECT_NAME":"CHECKMATE 10","OBJECT_ID":"2023-133F","EPOCH":"2026-03-09T14:36:16.908192","MEAN_MOTION":13.85465032,"ECCENTRICITY":0.0005039,"INCLINATION":80.9974,"RA_OF_ASC_NODE":103.0212,"ARG_OF_PERICENTER":278.4958,"MEAN_ANOMALY":81.5627,"EPHEMERIS_TYPE":0,"CLASSIFICATION_TYPE":"U","NORAD_CAT_ID":57762,"ELEMENT_SET_NO":999,"REV_AT_EPOCH":12724,"BSTAR":4.9049e-5,"MEAN_MOTION_DOT":6.7e-7,"MEAN_MOTION_DDOT":0},{"OBJECT_NAME":"SL-8 DEB","OBJECT_ID":"1991-007D","EPOCH":"2026-03-09T21:11:09.769344","MEAN_MOTION":13.78135104,"ECCENTRICITY":0.0033578,"INCLINATION":82.9212,"RA_OF_ASC_NODE":26.0837,"ARG_OF_PERICENTER":131.3943,"MEAN_ANOMALY":283.8207,"EPHEMERIS_TYPE":0,"CLASSIFICATION_TYPE":"U","NORAD_CAT_ID":21257,"ELEMENT_SET_NO":999,"REV_AT_EPOCH":76047,"BSTAR":0.00027805274,"MEAN_MOTION_DOT":2.96e-6,"MEAN_MOTION_DDOT":0}]
